STARLINK-30572
1 58114U 23161T   25351.93531139  .00000230  00000+0  19905-4 0  9994
2 58114  53.1598 185.3427 0001463  88.6373 271.4796 15.30191964121909